#aV2023  1 11  0  0  0.00000000     288 DD+AD WGS84 FIT  NGA
## 2244 259200.00000000   300.00000000 59955 0.0000000000000
+   31     1  2  3  4  5  6  7  8  9 10 11 12 13 14 15 16 17
+         18 19 20 21 22 23 24 25 26 27 29 30 31 32  0  0  0
+          0  0  0  0  0  0  0  0  0  0  0  0  0  0  0  0  0
+          0  0  0  0  0  0  0  0  0  0  0  0  0  0  0  0  0
+          0  0  0  0  0  0  0  0  0  0  0  0  0  0  0  0  0
++         2  2  2  2  2  2  2  2  2  2  2  2  2  2  2  2  2
++         2  2  2  2  2  2  2  2  2  2  2  2  2  2  0  0  0
++         0  0  0  0  0  0  0  0  0  0  0  0  0  0  0  0  0
++         0  0  0  0  0  0  0  0  0  0  0  0  0  0  0  0  0
++         0  0  0  0  0  0  0  0  0  0  0  0  0  0  0  0  0
%c cc cc ccc ccc cccc cccc cccc cccc ccccc ccccc ccccc ccccc
%c cc cc ccc ccc cccc cccc cccc cccc ccccc ccccc ccccc ccccc
%f  0.0000000  0.000000000  0.00000000000  0.000000000000000
%f  0.0000000  0.000000000  0.00000000000  0.000000000000000
%i    0    0    0    0      0      0      0      0         0
%i    0    0    0    0      0      0      0      0         0
/*      NGA, ST. LOUIS,MO.                                  
/*   EPHEMERIS COMPUTED FROM 2 DAYS OF DATA                 
/*   EPOCHA v8 SMOOTHER                                     
/*   G2139 IERS2010 SATIGS SATAPC                           
*  2023  1 11  4 35  0.00000000
P  1  20882.863790  14412.839915  -8742.146272    225.932529                    
V  1 -10322.062504  -2534.448850 -29575.036025     -0.047805                    
P  2 -22970.992143 -11518.697627   6863.751721   -628.014322                    
V  2   8339.207978   -289.711279  30430.146429      0.022418                    
P  3  12336.055894  19322.016631  13388.235150   -372.832864                    
V  3   1024.704294  17190.443807 -25413.553277      0.020724                    
P  4  13786.225460   8077.074741  21238.286430    -51.104591                    
V  4 -21038.899956  16824.559520   7153.072698      0.075929                    
P  5  -5542.685003 -25908.442553   -107.900838   -111.527196                    
V  5   2769.436282   -516.233215  31908.712530     -0.014634                    
P  6  14797.466455  -8684.423180  20368.936644    556.520770                    
V  6  23644.102490   9866.241950 -12930.627056      0.062178                    
P  7  25603.454458   6187.656807  -4625.750174    260.726225                    
V  7   4950.404607   4806.842993  30476.929926     -0.061195                    
P  8   3407.566696  16202.834274 -20733.072158   -102.986320                    
V  8 -20581.867487  16414.885617   9845.968309     -0.018074                    
P  9  20883.693425  -2919.790519  16099.524247   -238.510216                    
V  9 -14330.662402  14908.375566  21143.424911      0.065190                    
P 10 -12136.205347  11309.124348 -20496.555368    -19.922351                    
V 10  -5342.676651 -25920.513277 -11351.976275     -0.015955                    
P 11   1432.824371 -15612.262591  21454.882073    -76.035082                    
V 11  25121.832668  10439.054986   5887.047305     -0.086502                    
P 12 -10416.879581 -21072.795963  12188.264294   -326.669864                    
V 12    696.263999 -15999.427424 -26367.620086     -0.045497                    
P 13   5565.826487 -18315.600165 -18505.984902    457.350402                    
V 13  20505.095880 -10911.469326  17315.277773      0.064377                    
P 14  13932.220375  -8604.666759 -20883.664486    -51.726861                    
V 14   4295.740565  26258.541784  -8071.390251      0.074977                    
P 15  -5981.884802 -16107.328726 -20644.654680      3.597748                    
V 15  18095.146989 -17842.017131   9150.390014      0.032723                    
P 16    103.717728  26136.721362   2683.031148   -524.182843                    
V 16  -3315.795133  -3570.567144  31948.555993      0.010586                    
P 17  22817.571064 -12797.484230  -4422.515133    692.525875                    
V 17  -3655.693347   5430.963305 -31379.737211      0.026118                    
P 18 -25014.368020  -3881.734881  -8276.320577    -94.317997                    
V 18  -8927.631066  -5858.770001  29576.018299     -0.151592                    
P 19  19112.145289 -17225.207105   5766.680192    262.519749                    
V 19   7797.314767  -2087.953872 -31111.180451      0.050778                    
P 20    866.222805 -23893.869930  11823.949673    457.820456                    
V 20   7237.836810  13298.497753  26188.489825     -0.023993                    
P 21  15762.918055  15273.035338 -14900.510618    153.358632                    
V 21 -19396.574792  -3715.126278 -22616.277514      0.002727                    
P 22 -15924.833661  19083.520497   9541.222446    403.410914                    
V 22 -10953.023294   4486.501261 -28713.651986      0.079585                    
P 23 -15317.513258  -1300.755511 -21673.220845      2.142899                    
V 23  -4933.991030 -27024.287175   4969.601370      0.010743                    
P 24 -18581.981975 -14883.508307 -12545.027245    -24.701554                    
V 24  15421.250764   1655.761840 -25096.968239     -0.167811                    
P 25 -15064.646499 -12222.800643  17956.364208    410.237242                    
V 25  -2467.095719 -23265.031594 -17329.494787      0.033765                    
P 26  -6230.905961  21021.268344  14642.034665    240.105594                    
V 26  -7092.245326 -17847.134044  22779.586298      0.006081                    
P 27  -7895.313244  20156.152737 -15330.005571    130.031630                    
V 27 -16096.025761  10677.807569  23068.500833     -0.094823                    
P 29 -19621.842374   -918.964226  17868.403413   -579.687113                    
V 29  17845.980485 -14097.962395  18749.378957     -0.022364                    
P 30  21410.649992  -3802.368508 -15329.541093   -533.553694                    
V 30  17397.515615   9334.794354  21595.727486      0.009255                    
P 31 -13814.729976   9968.616452  20319.905236   -205.975491                    
V 31 -23886.504653 -10512.933209 -10541.517939     -0.011368                    
P 32 -21209.088018  15610.053712  -2314.136987   -360.085383                    
V 32    468.498368  -4349.118101 -31673.674231     -0.125084                    
EOF
